HAWK-13C                
1 67393U 26004AG  26038.64658462  .00012850  00000+0  63386-3 0  9994
2 67393  97.4565  39.6222 0007111  85.3505 274.8541 15.18023661  4105
TWILIGHT AH             
1 67394U 26004AH  26038.70420241  .00007945  00000+0  39034-3 0  9996
2 67394  97.4475  39.6466 0010732  72.3058 287.9347 15.18273034  4119
TWILIGHT AJ             
1 67395U 26004AJ  26038.71780941  .00003146  00000+0  35027-3 0  9991
2 67395  97.8017  39.4330 0005103 179.1996 180.9230 14.87807671  4025
HAWK-13B                
1 67396U 26004AK  26038.77748377  .00013124  00000+0  64997-3 0  9990
2 67396  97.4512  39.7149 0008752  71.4928 288.7257 15.17867492  4123
CARBSAR                 
1 67397U 26004AL  26038.77960124  .00010861  00000+0  53857-3 0  9995
2 67397  97.4533  39.7206 0007928  76.5150 283.6967 15.17875840  4126
TWILIGHT AM             
1 67398U 26004AM  26038.77615411  .00006926  00000+0  34383-3 0  9992
2 67398  97.4570  39.7379 0008816  81.1866 279.0365 15.17970159  4122
TWILIGHT AN             
1 67399U 26004AN  26038.77337649  .00010363  00000+0  51017-3 0  9990
2 67399  97.4558  39.7374 0009464  78.1591 282.0704 15.18130441  4129
CONNECTA IOT-13         
1 67400U 26004AP  26038.70246521  .00010800  00000+0  53058-3 0  9997
2 67400  97.4556  39.6783 0010964  81.5894 278.6582 15.18178290  4112
CONNECTA IOT-14         
1 67401U 26004AQ  26038.76608331  .00014876  00000+0  72196-3 0  9996
2 67401  97.4496  39.7262 0011533  76.5165 283.7354 15.18520815  4126
CONNECTA IOT-15         
1 67402U 26004AR  26038.72885515 -.00000625  00000+0 -28577-4 0  9998
2 67402  97.4563  39.6453 0004684  68.0009 292.1721 15.16680276  4101
SHIJIAN-29B (SJ-29B)    
1 67403U 25315C   26038.78142427 -.00000063  00000+0  00000+0 0  9998
2 67403   3.0700  98.4958 0002467 313.2360  80.5729  1.00272321   393
STARLINK-36484          
1 67404U 26005A   26038.83336806  .00069138  00000+0  16497-2 0  9995
2 67404  43.0011  49.2913 0001538 256.7611 306.4311 15.40657051  5349
STARLINK-36452          
1 67405U 26005B   26038.51035884  .00001288  00000+0  27914-4 0  9993
2 67405  43.0004  50.7871 0004319 225.8527 134.1978 15.50462168  4051
STARLINK-36409          
1 67406U 26005C   26038.83336806  .00071598  00000+0  17101-2 0  9993
2 67406  43.0005  49.0796 0001273 250.9332  39.4293 15.40613492  5380
STARLINK-36510          
1 67407U 26005D   26038.50967673  .00121296  00000+0  20365-2 0  9997
2 67407  43.0002  50.7808 0001232 264.7813  95.2906 15.50648663  4056
STARLINK-36509          
1 67408U 26005E   26038.83336806 -.01009991  00000+0 -25984-1 0  9993
2 67408  43.0004  48.9586 0001009 235.4117 104.3036 15.41375830  5381
STARLINK-36507          
1 67409U 26005F   26038.50898941  .00087818  00000+0  14844-2 0  9996
2 67409  43.0004  50.7760 0001228 287.4936  72.5790 15.50608908  4057
STARLINK-36508          
1 67410U 26005G   26038.83336806  .00051088  00000+0  12247-2 0  9996
2 67410  43.0009  49.1994 0001410 259.7884 340.8077 15.40633979  5383
STARLINK-36503          
1 67411U 26005H   26038.50830402  .00086683  00000+0  14655-2 0  9996
2 67411  43.0003  50.7705 0001389 279.4949  80.5754 15.50608637  4059
STARLINK-36446          
1 67412U 26005J   26036.18911721 -.00242506  00000+0 -43537-2 0  9994
2 67412  42.9999  64.3297 0000465 298.0126  62.0687 15.49952014  3695
STARLINK-36442          
1 67413U 26005K   26037.47705112 -.00215619  00000+0 -38327-2 0  9999
2 67413  42.9995  56.7906 0001428 304.3441  55.7284 15.50127677  3890
STARLINK-36506          
1 67414U 26005L   26038.50727314  .00090066  00000+0  15217-2 0  9991
2 67414  43.0002  50.7617 0001442 258.6893 101.3805 15.50610396  4054
STARLINK-36468          
1 67415U 26005M   26038.50693101  .00085931  00000+0  14533-2 0  9993
2 67415  43.0007  50.7584 0001582 274.3295  85.7385 15.50603282  4053
STARLINK-36487          
1 67416U 26005N   26038.83336806  .00050652  00000+0  12140-2 0  9990
2 67416  43.0007  49.1370 0001282 266.6616 358.7957 15.40644735  5389
STARLINK-36374          
1 67417U 26005P   26038.50624522  .00090319  00000+0  15262-2 0  9992
2 67417  43.0006  50.7532 0001545 260.2278  99.8407 15.50605389  4052
STARLINK-36455          
1 67418U 26005Q   26038.50590265  .00124866  00000+0  20978-2 0  9994
2 67418  43.0002  50.7502 0001472 258.1767 101.8928 15.50614156  4058
STARLINK-36424          
1 67419U 26005R   26038.37639649  .00170183  00000+0  27918-2 0  9994
2 67419  43.0002  51.4980 0000858 256.2283 103.8482 15.51099463  4030
STARLINK-35564          
1 67420U 26005S   26038.50521539  .00126707  00000+0  21278-2 0  9995
2 67420  43.0000  50.7442 0001481 254.5110 105.5587 15.50618620  4056
STARLINK-36431          
1 67421U 26005T   26038.83336806  .00046162  00000+0  11078-2 0  9996
2 67421  43.0010  49.1666 0001329 268.4865 344.5473 15.40642185  5186
STARLINK-36418          
1 67422U 26005U   26038.83336806 -.02382438  00000+0 -58791-1 0  9992
2 67422  43.0005  48.8713 0001023 287.4590  87.6680 15.43279784  5344
STARLINK-36465          
1 67423U 26005V   26038.83336806  .00048284  00000+0  11580-2 0  9993
2 67423  43.0007  49.1062 0000856 272.6413   5.2614 15.40644213  5131
STARLINK-36362          
1 67424U 26005W   26038.83336806  .00053149  00000+0  12733-2 0  9991
2 67424  43.0006  49.0458 0000744 280.5778  22.2074 15.40639492  5386
STARLINK-36447          
1 67425U 26005X   26038.83336806  .00078678  00000+0  18766-2 0  9998
2 67425  43.0005  48.9856 0000822 261.6150  66.0697 15.40616075  5386
STARLINK-36146          
1 67426U 26005Y   26038.83336806 -.02038205  00000+0 -47096-1 0  9992
2 67426  43.0007  48.8245 0001226 267.9915 126.0943 15.45215856  5341
STARLINK-36459          
1 67427U 26005Z   26038.50290227 -.00238704  00000+0 -42691-2 0  9994
2 67427  43.0003  50.7246 0001445 313.7579  46.3161 15.50042225  4046
STARLINK-36464          
1 67428U 26005AA  26038.50212854  .00100554  00000+0  16960-2 0  9994
2 67428  43.0003  50.7187 0001563 249.8184 110.2508 15.50609548  4046
STARLINK-36513          
1 67429U 26005AB  26038.50178543  .00125078  00000+0  21005-2 0  9995
2 67429  43.0001  50.7152 0000933 259.6497 100.4258 15.50625492  4042
STARLINK-36515          
1 67430U 26005AC  26038.50247166  .00122019  00000+0  20508-2 0  9994
2 67430  43.0005  50.7208 0001619 261.5987  98.4690 15.50615145  4048
STARLINK-36443          
1 67431U 26005AD  26038.37261242  .00100858  00000+0  16980-2 0  9997
2 67431  42.9989  51.4664 0001725 265.5788  94.4875 15.50660015  4039
STARLINK-36460          
1 67432U 26005AE  26038.50109925  .00134455  00000+0  22551-2 0  9993
2 67432  43.0003  50.7093 0001422 250.1002 109.9705 15.50621483  4041
YAOGAN-50 01            
1 67433U 26006A   26038.73546472  .00000388  00000+0  18017-3 0  9992
2 67433 142.0320 310.1930 0000736 263.3415  96.7220 13.83241903  3502
CZ-6A R/B               
1 67434U 26006B   26038.36957131  .00002056  00000+0  25028-3 0  9994
2 67434 142.0436 323.8996 0203606 263.4627  94.2900 14.62310741  3638
HULIANWANG DIGUI-137    
1 67435U 26007A   26038.55156943  .00000017  00000+0  16530-3 0  9992
2 67435  50.0069 195.8967 0000240  58.6458 301.4458 13.74506786  3469
HULIANWANG DIGUI-138    
1 67436U 26007B   26038.55745164  .00000015  00000+0  16291-3 0  9994
2 67436  50.0079 195.9162 0002225 300.7062  59.3610 13.74670886  3468
HULIANWANG DIGUI-139    
1 67437U 26007C   26038.48152907  .00000046  00000+0  19579-3 0  9990
2 67437  50.0000 196.1814 0000482 302.0612  58.0233 13.74488554  3454
HULIANWANG DIGUI-140    
1 67438U 26007D   26038.56078171  .00000037  00000+0  18840-3 0  9990
2 67438  50.0042 195.9376 0000450 100.2709 259.8233 13.73892776  3467
HULIANWANG DIGUI-141    
1 67439U 26007E   26038.54785445  .00000020  00000+0  16774-3 0  9994
2 67439  50.0031 195.8681 0000432 103.6480 256.4460 13.74661753  3462
HULIANWANG DIGUI-142    
1 67440U 26007F   26038.39919995 -.00000130  00000+0  11054-4 0  9998
2 67440  50.0103 196.4425 0001575 349.9268  10.1593 13.75320254  3444
HULIANWANG DIGUI-143    
1 67441U 26007G   26038.61380095  .00000020  00000+0  16749-3 0  9999
2 67441  50.0040 195.5696 0002397 180.3309 179.7582 13.75018638  3474
HULIANWANG DIGUI-144    
1 67442U 26007H   26038.39263977  .00000007  00000+0  15225-3 0  9997
2 67442  50.0090 196.4111 0001932 359.9166   0.1726 13.75792192  3449
HULIANWANG DIGUI-145    
1 67443U 26007J   26038.75223928  .00000028  00000+0  17536-3 0  9990
2 67443  50.0055 194.9596 0000908   2.3080 357.7816 13.75099186  3496
CZ-8A R/B               
1 67444U 26007K   26038.78533934  .00000017  00000+0  87117-4 0  9996
2 67444  50.0086 190.4296 0092228 169.2813 191.0089 14.13552025  3559
STARLINK-36542          
1 67445U 26008A   26038.83336806 -.00241875  00000+0 -42235-2 0  9994
2 67445  43.0005  15.4203 0000613 268.6107 246.6479 15.50727701  4990
STARLINK-36539          
1 67446U 26008B   26038.83336806 -.00079115  00000+0 -13555-2 0  9994
2 67446  43.0004  15.3227 0001169 258.9343 295.6607 15.50598396  4999
STARLINK-36440          
1 67447U 26008C   26038.83336806 -.02070102  00000+0 -29657-1 0  9993
2 67447  43.0001  14.9742 0001312 256.3860  79.7264 15.58429282  4995
STARLINK-36423          
1 67448U 26008D   26038.83336806 -.00162226  00000+0 -28089-2 0  9990
2 67448  43.0003  15.5351 0001661 255.5360 212.7924 15.50658981  4998
STARLINK-36519          
1 67449U 26008E   26038.83336806 -.02057157  00000+0 -32676-1 0  9995
2 67449  43.0003  15.0603 0001342 253.6050  46.8232 15.55676445  4993
STARLINK-36525          
1 67450U 26008F   26038.83336806 -.00263606  00000+0 -46220-2 0  9994
2 67450  43.0003  15.4041 0001580 264.3015 256.6049 15.50688916  4997
STARLINK-36511          
1 67451U 26008G   26038.83336806 -.00071961  00000+0 -12313-2 0  9992
2 67451  43.0002  15.5076 0001416 265.3854 213.8630 15.50596346  4992
